{
  "links" : {
    "next" : "https://api.nasa.gov/neo/rest/v1/feed?start_date=2009-05-09&end_date=2009-05-09&detailed=true&api_key=t0TVs3DtDT2H8Oy2Zy8m2eVrNsAVKAexjcZXUckd",
    "prev" : "https://api.nasa.gov/neo/rest/v1/feed?start_date=2009-05-07&end_date=2009-05-07&detailed=true&api_key=t0TVs3DtDT2H8Oy2Zy8m2eVrNsAVKAexjcZXUckd",
    "self" : "https://api.nasa.gov/neo/rest/v1/feed?start_date=2009-05-08&end_date=2009-05-08&detailed=true&api_key=t0TVs3DtDT2H8Oy2Zy8m2eVrNsAVKAexjcZXUckd"
  },
  "element_count" : 8,
  "near_earth_objects" : {
    "2009-05-08" : [ {
      "links" : {
        "self" : "https://api.nasa.gov/neo/rest/v1/neo/3410474?api_key=t0TVs3DtDT2H8Oy2Zy8m2eVrNsAVKAexjcZXUckd"
      },
      "neo_reference_id" : "3410474",
      "name" : "(2008 JM20)",
      "nasa_jpl_url" : "http://ssd.jpl.nasa.gov/sbdb.cgi?sstr=3410474",
      "absolute_magnitude_h" : 21.0,
      "estimated_diameter" : {
        "kilometers" : {
          "estimated_diameter_min" : 0.1677084622,
          "estimated_diameter_max" : 0.3750075218
        },
        "meters" : {
          "estimated_diameter_min" : 167.7084621628,
          "estimated_diameter_max" : 375.0075217981
        },
        "miles" : {
          "estimated_diameter_min" : 0.1042091748,
          "estimated_diameter_max" : 0.2330187988
        },
        "feet" : {
          "estimated_diameter_min" : 550.2246310023,
          "estimated_diameter_max" : 1230.3396778159
        }
      },
      "is_potentially_hazardous_asteroid" : false,
      "close_approach_data" : [ {
        "close_approach_date" : "2009-05-08",
        "epoch_date_close_approach" : 1241766000000,
        "relative_velocity" : {
          "kilometers_per_second" : "23.808933245",
          "kilometers_per_hour" : "85712.1596821264",
          "miles_per_hour" : "53258.202775819"
        },
        "miss_distance" : {
          "astronomical" : "0.2184164861",
          "lunar" : "84.964012146",
          "kilometers" : "32674640",
          "miles" : "20303080"
        },
        "orbiting_body" : "Earth"
      } ],
      "orbital_data" : {
        "orbit_id" : "17",
        "orbit_determination_date" : "2017-04-06 09:03:27",
        "orbit_uncertainty" : "2",
        "minimum_orbit_intersection" : ".164167",
        "jupiter_tisserand_invariant" : "5.751",
        "epoch_osculation" : "2458000.5",
        "eccentricity" : ".5920637249101245",
        "semi_major_axis" : "1.02204832684398",
        "inclination" : "22.48814425873502",
        "ascending_node_longitude" : "64.94457277444644",
        "orbital_period" : "377.4031965581878",
        "perihelion_distance" : ".416930587414573",
        "perihelion_argument" : "27.71113556351528",
        "aphelion_distance" : "1.627166066273388",
        "perihelion_time" : "2457920.959881068913",
        "mean_anomaly" : "75.87228480396955",
        "mean_motion" : ".9538869921693824",
        "equinox" : "J2000"
      }
    }, {
      "links" : {
        "self" : "https://api.nasa.gov/neo/rest/v1/neo/3461232?api_key=t0TVs3DtDT2H8Oy2Zy8m2eVrNsAVKAexjcZXUckd"
      },
      "neo_reference_id" : "3461232",
      "name" : "(2009 KT4)",
      "nasa_jpl_url" : "http://ssd.jpl.nasa.gov/sbdb.cgi?sstr=3461232",
      "absolute_magnitude_h" : 21.8,
      "estimated_diameter" : {
        "kilometers" : {
          "estimated_diameter_min" : 0.1160259082,
          "estimated_diameter_max" : 0.2594418179
        },
        "meters" : {
          "estimated_diameter_min" : 116.0259082094,
          "estimated_diameter_max" : 259.4418179074
        },
        "miles" : {
          "estimated_diameter_min" : 0.0720951346,
          "estimated_diameter_max" : 0.1612096218
        },
        "feet" : {
          "estimated_diameter_min" : 380.6624406898,
          "estimated_diameter_max" : 851.1870938635
        }
      },
      "is_potentially_hazardous_asteroid" : false,
      "close_approach_data" : [ {
        "close_approach_date" : "2009-05-08",
        "epoch_date_close_approach" : 1241766000000,
        "relative_velocity" : {
          "kilometers_per_second" : "9.9570673983",
          "kilometers_per_hour" : "35845.4426338009",
          "miles_per_hour" : "22272.9640632081"
        },
        "miss_distance" : {
          "astronomical" : "0.1815159001",
          "lunar" : "70.6096878052",
          "kilometers" : "27154392",
          "miles" : "16872958"
        },
        "orbiting_body" : "Earth"
      } ],
      "orbital_data" : {
        "orbit_id" : "10",
        "orbit_determination_date" : "2017-04-06 09:00:30",
        "orbit_uncertainty" : "8",
        "minimum_orbit_intersection" : ".0645713",
        "jupiter_tisserand_invariant" : "5.027",
        "epoch_osculation" : "2454985.5",
        "eccentricity" : ".2022225039418738",
        "semi_major_axis" : "1.277163607492467",
        "inclination" : "11.00225219162524",
        "ascending_node_longitude" : "230.7141368766894",
        "orbital_period" : "527.1912933984238",
        "perihelion_distance" : "1.018892384841904",
        "perihelion_argument" : "309.1170461794194",
        "aphelion_distance" : "1.535434830143031",
        "perihelion_time" : "2454922.507698606670",
        "mean_anomaly" : "43.01518023071851",
        "mean_motion" : ".6828640846462741",
        "equinox" : "J2000"
      }
    }, {
      "links" : {
        "self" : "https://api.nasa.gov/neo/rest/v1/neo/3549694?api_key=t0TVs3DtDT2H8Oy2Zy8m2eVrNsAVKAexjcZXUckd"
      },
      "neo_reference_id" : "3549694",
      "name" : "(2010 TX168)",
      "nasa_jpl_url" : "http://ssd.jpl.nasa.gov/sbdb.cgi?sstr=3549694",
      "absolute_magnitude_h" : 20.0,
      "estimated_diameter" : {
        "kilometers" : {
          "estimated_diameter_min" : 0.2658,
          "estimated_diameter_max" : 0.5943468684
        },
        "meters" : {
          "estimated_diameter_min" : 265.8,
          "estimated_diameter_max" : 594.3468684194
        },
        "miles" : {
          "estimated_diameter_min" : 0.1651604118,
          "estimated_diameter_max" : 0.369309908
        },
        "feet" : {
          "estimated_diameter_min" : 872.047272,
          "estimated_diameter_max" : 1949.9569797852
        }
      },
      "is_potentially_hazardous_asteroid" : true,
      "close_approach_data" : [ {
        "close_approach_date" : "2009-05-08",
        "epoch_date_close_approach" : 1241766000000,
        "relative_velocity" : {
          "kilometers_per_second" : "25.7560435151",
          "kilometers_per_hour" : "92721.756654428",
          "miles_per_hour" : "57613.6937389695"
        },
        "miss_distance" : {
          "astronomical" : "0.2513383366",
          "lunar" : "97.770614624",
          "kilometers" : "37599680",
          "miles" : "23363358"
        },
        "orbiting_body" : "Earth"
      } ],
      "orbital_data" : {
        "orbit_id" : "23",
        "orbit_determination_date" : "2017-04-06 08:56:13",
        "orbit_uncertainty" : "7",
        "minimum_orbit_intersection" : ".0205144",
        "jupiter_tisserand_invariant" : "4.328",
        "epoch_osculation" : "2458000.5",
        "eccentricity" : ".5231716247905228",
        "semi_major_axis" : "1.482371877059575",
        "inclination" : "26.00498888387507",
        "ascending_node_longitude" : "33.0042518376061",
        "orbital_period" : "659.2257721420267",
        "perihelion_distance" : ".70683697359454",
        "perihelion_argument" : "101.4921694199593",
        "aphelion_distance" : "2.25790678052461",
        "perihelion_time" : "2458207.422376725049",
        "mean_anomaly" : "247.0006926777605",
        "mean_motion" : ".5460951546694687",
        "equinox" : "J2000"
      }
    } ]
  }
}